[{"OBJECT_NAME":"STARLINK-4200","OBJECT_ID":"2022-062AY","EPOCH":"2026-03-09T07:05:43.319328","MEAN_MOTION":15.0883264,"ECCENTRICITY":0.00014434,"INCLINATION":53.2188,"RA_OF_ASC_NODE":15.8899,"ARG_OF_PERICENTER":98.2929,"MEAN_ANOMALY":261.8227,"EPHEMERIS_TYPE":0,"CLASSIFICATION_TYPE":"U","NORAD_CAT_ID":52876,"ELEMENT_SET_NO":999,"REV_AT_EPOCH":20600,"BSTAR":-1.6939766e-5,"MEAN_MOTION_DOT":-5.57e-6,"MEAN_MOTION_DDOT":0},{"OBJECT_NAME":"NANOFF A","OBJECT_ID":"2023-185T","EPOCH":"2026-03-09T23:34:34.415328","MEAN_MOTION":15.11542977,"ECCENTRICITY":0.00086783,"INCLINATION":97.5359,"RA_OF_ASC_NODE":137.8345,"ARG_OF_PERICENTER":292.8968,"MEAN_ANOMALY":67.1346,"EPHEMERIS_TYPE":0,"CLASSIFICATION_TYPE":"U","NORAD_CAT_ID":58810,"ELEMENT_SET_NO":999,"REV_AT_EPOCH":11805,"BSTAR":0.00027314844,"MEAN_MOTION_DOT":4.57e-5,"MEAN_MOTION_DDOT":0}]
